CORVUS BC1              
1 42847U 17042Y   26023.87351910  .00008030  00000+0  56299-3 0  9990
2 42847  97.3918 191.7880 0011459 218.6465 141.3943 15.05396232465376
MAKERSAT 0              
1 43016U 17073D   26023.40921945  .00028207  00000+0  89469-3 0  9996
2 43016  97.4850 265.2939 0124516  65.6902 295.7281 15.25329832444345
SIRION PATHFINDER-2     
1 43759U 18099B   26023.88491015  .00010547  00000+0  60111-3 0  9992
2 43759  97.4478  76.3638 0010485  81.0104 279.2313 15.12926025390792
CORVUS BC4              
1 43767U 18099K   26024.10143866  .00008418  00000+0  50595-3 0  9994
2 43767  97.4289  71.2690 0009776 131.7510 228.4557 15.11076234390634
SPACEBEE-7              
1 43816U 18099BL  26023.94815135  .00276973  00000+0  21700-2 0  9993
2 43816  97.4614 107.0434 0002970 327.2433  32.8645 15.70743567392126
SHIELDS 1               
1 43850U 18104B   26023.84976358  .00390506  64955-4  68084-3 0  9992
2 43850  84.9979 232.6105 0002219  28.4005 331.7401 16.02177017397358
M2 PATHFINDER           
1 45727U 20037E   26023.97083624  .00005314  00000+0  39053-3 0  9994
2 45727  97.8143 213.6193 0010056 282.6808  77.3292 15.03826451303810
NETSAT-4                
1 46504U 20068U   26023.93435370  .00028812  00000+0  76019-3 0  9998
2 46504  97.8621  21.1652 0008338 108.6418 251.5731 15.38409128293550
NETSAT-3                
1 46505U 20068V   26023.95019261  .00029676  00000+0  81871-3 0  9999
2 46505  97.8656  19.6198 0007789 120.5265 239.6748 15.37025351293486
NETSAT-1                
1 46506U 20068W   26023.39862393  .00020635  00000+0  70244-3 0  9998
2 46506  97.8712  14.9252 0006996 137.5667 222.6115 15.30426474293127
NETSAT-2                
1 46507U 20068X   26023.91652592  .00033127  00000+0  85127-3 0  9991
2 46507  97.8636  20.6704 0006258 127.1827 232.9989 15.39206503293494
WILDTRACKCUBE-SIMBA     
1 47941U 21022K   26021.89202769  .00202779  00000+0  11609-2 0  9991
2 47941  97.4025 300.0175 0005606 143.3516 216.8135 15.78247967268390
GREENCUBE (IO-117)      
1 53109U 22080E   26023.28677148 -.00000003  00000+0  00000+0 0  9998
2 53109  70.1620 348.6313 0009140 319.4350  40.5628  6.42583220 82752
SITRO-AIS 5 (KATYS)     
1 57176U 23091L   26024.16790670  .00021211  00000+0  83200-3 0  9993
2 57176  97.5272  86.9308 0011097 248.2944 111.7113 15.25713463142352
SITRO-AIS 6 (CHIRKIN)   
1 57192U 23091AC  26024.19857775  .00011171  00000+0  46766-3 0  9994
2 57192  97.5276  86.7162 0010960 248.0869 111.9203 15.23676364142349
SITRO-AIS 8 (ANOKHIN)   
1 57193U 23091AD  26024.21342694  .00025804  00000+0  94994-3 0  9991
2 57193  97.5264  88.0485 0010401 245.1691 114.8467 15.27783947142435
SITRO-AIS 7 (FARTUSHNIY)
1 57194U 23091AE  26024.17653196  .00011074  00000+0  46656-3 0  9995
2 57194  97.5275  86.5810 0010748 249.7194 110.2887 15.23464727142338
SITRO-AIS 10 (BURDAEV)  
1 57199U 23091AK  26024.19214503  .00033018  00000+0  10442-2 0  9992
2 57199  97.5279  91.7826 0006944 220.3462 139.7266 15.32696131142667
SITRO-AIS 9 (SHCHUKIN)  
1 57201U 23091AM  26024.18004309  .00031825  00000+0  10174-2 0  9992
2 57201  97.5278  91.5945 0006905 220.3238 139.7492 15.32358410142653
SITRO-AIS 12 (SMIRENNIY)
1 57204U 23091AQ  26024.19544815  .00032151  00000+0  10201-2 0  9991
2 57204  97.5288  91.9964 0006969 213.2799 146.8005 15.32596231142671
SITRO-AIS 11 (SHEFFER)  
1 57208U 23091AU  26024.17796664  .00032086  00000+0  10083-2 0  9999
2 57208  97.5286  92.1476 0006851 212.5796 147.5024 15.32905749142681
SITRO-AIS 25            
1 59066U 24039R   26024.19991054  .00011131  00000+0  88082-3 0  9991
2 59066  95.3958 136.2093 0150087 110.9218 250.8145 14.92146612103245
SITRO-AIS 26            
1 59067U 24039S   26024.18285336  .00011318  00000+0  89942-3 0  9993
2 59067  95.3955 136.1226 0150300 111.4179 250.3155 14.91967519103231
SITRO-AIS 27            
1 59068U 24039T   26024.19182316  .00011658  00000+0  91876-3 0  9995
2 59068  95.3957 136.3372 0149526 110.3105 251.4260 14.92350629103253
SITRO-AIS 28            
1 59071U 24039U   26024.17259476  .00010624  00000+0  83749-3 0  9991
2 59071  95.3954 136.3638 0149249 110.2741 251.4598 14.92383606103251
GRBBETA                 
1 60237U 24128C   26024.20720890  .00008596  00000+0  59344-3 0  9992
2 60237  61.9921   0.9363 0054577 104.9217 255.7927 15.05237474 84581
OOV-CUBE (TUBSAT-30)    
1 60240U 24128F   26024.16094271  .00005175  00000+0  39594-3 0  9993
2 60240  61.9967   7.4921 0057196 102.9089 257.8399 15.01908911 84473
ROBUSTA-3A (MEDITERRAN*)
1 60243U 24128J   26024.15254499  .00016248  00000+0  99585-3 0  9994
2 60243  61.9889 356.6825 0055026  98.8327 261.9003 15.09080379 84665
LASARSAT                
1 62391U 24247Q   26024.01794293  .00045873  00000+0  12398-2 0  9990
2 62391  44.9790 346.8561 0000394  46.2990 313.7929 15.37078423 61062
CROCUBE                 
1 62394U 24247T   26023.94696459  .00048840  00000+0  12827-2 0  9993
2 62394  44.9765 346.2572 0001437  31.7627 328.3346 15.37936985 61069
